{"type": "FeatureCollection", "features": [ {"type": "Feature", "properties": {"norad_id": 44543, "name": "BEIDOU-3 M23 (C45)", "group": "beidou", "lat": -39.56424373989653, "lon": 44.782589749797005, "alt_km": 21548.10908198452, "timestamp": "2025-12-27T21:25:02.779190+00:00", "meta": {"OBJECT_NAME": "BEIDOU-3 M23 (C45)", "OBJECT_ID": "2019-061B", "EPOCH": "2025-12-26T11:37:48.857664", "MEAN_MOTION": 1.86227559, "ECCENTRICITY": 0.0005976, "INCLINATION": 54.3995, "RA_OF_ASC_NODE": 188.5205, "ARG_OF_PERICENTER": 25.6827, "MEAN_ANOMALY": 342.0898, "EPHEMERIS_TYPE": 0, "CLASSIFICATION_TYPE": "U", "NORAD_CAT_ID": 44543, "ELEMENT_SET_NO": 999, "REV_AT_EPOCH": 4258, "BSTAR": 0, "MEAN_MOTION_DOT": 1.22e-06, "MEAN_MOTION_DDOT": 0}, "tle": {"line1": "1 44543U 19061B   25360.48459326  .00000122  00000+0  00000+0 0  9997", "line2": "2 44543  54.3995 188.5205 0005976  25.6827 342.0898  1.86227559 42581"}}, "geometry": {"type": "Point", "coordinates": [44.782589749797005, -39.56424373989653]}}, {"type": "Feature", "properties": {"norad_id": 44793, "name": "BEIDOU-3 M22 (C44)", "group": "beidou", "lat": 47.8660677427876, "lon": -1.0272495155274044, "alt_km": 21509.64204943753, "timestamp": "2025-12-27T21:25:02.779202+00:00", "meta": {"OBJECT_NAME": "BEIDOU-3 M22 (C44)", "OBJECT_ID": "2019-078A", "EPOCH": "2025-12-26T04:23:18.195072", "MEAN_MOTION": 1.86232141, "ECCENTRICITY": 0.0006121, "INCLINATION": 54.096, "RA_OF_ASC_NODE": 305.9151, "ARG_OF_PERICENTER": 23.7349, "MEAN_ANOMALY": 336.3032, "EPHEMERIS_TYPE": 0, "CLASSIFICATION_TYPE": "U", "NORAD_CAT_ID": 44793, "ELEMENT_SET_NO": 999, "REV_AT_EPOCH": 4142, "BSTAR": 0, "MEAN_MOTION_DOT": -5.6e-07, "MEAN_MOTION_DDOT": 0}, "tle": {"line1": "1 44793U 19078A   25360.18284948 -.00000056  00000+0  00000+0 0  9992", "line2": "2 44793  54.0960 305.9151 0006121  23.7349 336.3032  1.86232141 41424"}}, "geometry": {"type": "Point", "coordinates": [-1.0272495155274044, 47.8660677427876]}}, {"type": "Feature", "properties": {"norad_id": 44794, "name": "BEIDOU-3 M21 (C43)", "group": "beidou", "lat": -21.085745178704766, "lon": -70.41693890736647, "alt_km": 21521.873417047944, "timestamp": "2025-12-27T21:25:02.779213+00:00", "meta": {"OBJECT_NAME": "BEIDOU-3 M21 (C43)", "OBJECT_ID": "2019-078B", "EPOCH": "2025-12-25T05:55:32.884896", "MEAN_MOTION": 1.86227898, "ECCENTRICITY": 0.0004304, "INCLINATION": 54.0703, "RA_OF_ASC_NODE": 305.9129, "ARG_OF_PERICENTER": 12.6939, "MEAN_ANOMALY": 347.3266, "EPHEMERIS_TYPE": 0, "CLASSIFICATION_TYPE": "U", "NORAD_CAT_ID": 44794, "ELEMENT_SET_NO": 999, "REV_AT_EPOCH": 4141, "BSTAR": 0, "MEAN_MOTION_DOT": -5.3e-07, "MEAN_MOTION_DDOT": 0}, "tle": {"line1": "1 44794U 19078B   25359.24690839 -.00000053  00000+0  00000+0 0  9995", "line2": "2 44794  54.0703 305.9129 0004304  12.6939 347.3266  1.86227898 41411"}}, "geometry": {"type": "Point", "coordinates": [-70.41693890736647, -21.085745178704766]}}, {"type": "Feature", "properties": {"norad_id": 44864, "name": "BEIDOU-3 M19 (C41)", "group": "beidou", "lat": 8.845781882210423, "lon": -117.45600607022828, "alt_km": 21549.72393113069, "timestamp": "2025-12-27T21:25:02.779226+00:00", "meta": {"OBJECT_NAME": "BEIDOU-3 M19 (C41)", "OBJECT_ID": "2019-090A", "EPOCH": "2025-12-27T02:26:46.358016", "MEAN_MOTION": 1.86231443, "ECCENTRICITY": 0.0018509, "INCLINATION": 56.4046, "RA_OF_ASC_NODE": 68.4857, "ARG_OF_PERICENTER": 285.4212, "MEAN_ANOMALY": 74.1614, "EPHEMERIS_TYPE": 0, "CLASSIFICATION_TYPE": "U", "NORAD_CAT_ID": 44864, "ELEMENT_SET_NO": 999, "REV_AT_EPOCH": 4102, "BSTAR": 0, "MEAN_MOTION_DOT": -3.5e-07, "MEAN_MOTION_DDOT": 0}, "tle": {"line1": "1 44864U 19090A   25361.10192544 -.00000035  00000+0  00000+0 0  9995", "line2": "2 44864  56.4046  68.4857 0018509 285.4212  74.1614  1.86231443 41020"}}, "geometry": {"type": "Point", "coordinates": [-117.45600607022828, 8.845781882210423]}}, {"type": "Feature", "properties": {"norad_id": 44865, "name": "BEIDOU-3 M20 (C42)", "group": "beidou", "lat": -54.87693466242315, "lon": -40.79735950603245, "alt_km": 21499.66594324222, "timestamp": "2025-12-27T21:25:02.779238+00:00", "meta": {"OBJECT_NAME": "BEIDOU-3 M20 (C42)", "OBJECT_ID": "2019-090B", "EPOCH": "2025-12-27T12:01:33.425184", "MEAN_MOTION": 1.86231363, "ECCENTRICITY": 0.0015689, "INCLINATION": 56.4065, "RA_OF_ASC_NODE": 68.5068, "ARG_OF_PERICENTER": 297.5261, "MEAN_ANOMALY": 59.2827, "EPHEMERIS_TYPE": 0, "CLASSIFICATION_TYPE": "U", "NORAD_CAT_ID": 44865, "ELEMENT_SET_NO": 999, "REV_AT_EPOCH": 4101, "BSTAR": 0, "MEAN_MOTION_DOT": -3.8e-07, "MEAN_MOTION_DDOT": 0}, "tle": {"line1": "1 44865U 19090B   25361.50108131 -.00000038  00000+0  00000+0 0  9992", "line2": "2 44865  56.4065  68.5068 0015689 297.5261  59.2827  1.86231363 41011"}}, "geometry": {"type": "Point", "coordinates": [-40.79735950603245, -54.87693466242315]}}, {"type": "Feature", "properties": {"norad_id": 45344, "name": "BEIDOU-3 G2 (C60)", "group": "beidou", "lat": 2.5318696504262133, "lon": 137.90585147240193, "alt_km": 35793.1870677425, "timestamp": "2025-12-27T21:25:02.779250+00:00", "meta": {"OBJECT_NAME": "BEIDOU-3 G2 (C60)", "OBJECT_ID": "2020-017A", "EPOCH": "2025-12-27T09:57:30.305376", "MEAN_MOTION": 1.00271727, "ECCENTRICITY": 0.0002185, "INCLINATION": 2.5226, "RA_OF_ASC_NODE": 44.1676, "ARG_OF_PERICENTER": 236.9543, "MEAN_ANOMALY": 44.4455, "EPHEMERIS_TYPE": 0, "CLASSIFICATION_TYPE": "U", "NORAD_CAT_ID": 45344, "ELEMENT_SET_NO": 999, "REV_AT_EPOCH": 2153, "BSTAR": 0, "MEAN_MOTION_DOT": -1.19e-06, "MEAN_MOTION_DDOT": 0}, "tle": {"line1": "1 45344U 20017A   25361.41493409 -.00000119  00000+0  00000+0 0  9991", "line2": "2 45344   2.5226  44.1676 0002185 236.9543  44.4455  1.00271727 21539"}}, "geometry": {"type": "Point", "coordinates": [137.90585147240193, 2.5318696504262133]}}, {"type": "Feature", "properties": {"norad_id": 45807, "name": "BEIDOU-3 G3 (C61)", "group": "beidou", "lat": 1.9902225417537676, "lon": 168.39304568384662, "alt_km": 35812.16642009535, "timestamp": "2025-12-27T21:25:02.779263+00:00", "meta": {"OBJECT_NAME": "BEIDOU-3 G3 (C61)", "OBJECT_ID": "2020-040A", "EPOCH": "2025-12-27T06:40:41.652768", "MEAN_MOTION": 1.00266195, "ECCENTRICITY": 0.0006581, "INCLINATION": 2.0241, "RA_OF_ASC_NODE": 66.7054, "ARG_OF_PERICENTER": 308.3364, "MEAN_ANOMALY": 291.6349, "EPHEMERIS_TYPE": 0, "CLASSIFICATION_TYPE": "U", "NORAD_CAT_ID": 45807, "ELEMENT_SET_NO": 999, "REV_AT_EPOCH": 2034, "BSTAR": 0, "MEAN_MOTION_DOT": -3.32e-06, "MEAN_MOTION_DDOT": 0}, "tle": {"line1": "1 45807U 20040A   25361.27825987 -.00000332  00000+0  00000+0 0  9992", "line2": "2 45807   2.0241  66.7054 0006581 308.3364 291.6349  1.00266195 20343"}}, "geometry": {"type": "Point", "coordinates": [168.39304568384662, 1.9902225417537676]}}, {"type": "Feature", "properties": {"norad_id": 56564, "name": "BEIDOU-3 G4 (C62)", "group": "beidou", "lat": -0.7911791032955537, "lon": -142.06622224274963, "alt_km": 35778.956495714796, "timestamp": "2025-12-27T21:25:02.779275+00:00", "meta": {"OBJECT_NAME": "BEIDOU-3 G4 (C62)", "OBJECT_ID": "2023-066A", "EPOCH": "2025-12-27T13:39:33.878304", "MEAN_MOTION": 1.00270462, "ECCENTRICITY": 0.0002481, "INCLINATION": 0.7842, "RA_OF_ASC_NODE": 303.2168, "ARG_OF_PERICENTER": 231.6428, "MEAN_ANOMALY": 286.3758, "EPHEMERIS_TYPE": 0, "CLASSIFICATION_TYPE": "U", "NORAD_CAT_ID": 56564, "ELEMENT_SET_NO": 999, "REV_AT_EPOCH": 967, "BSTAR": 0, "MEAN_MOTION_DOT": -8.8e-07, "MEAN_MOTION_DDOT": 0}, "tle": {"line1": "1 56564U 23066A   25361.56914211 -.00000088  00000+0  00000+0 0  9994", "line2": "2 56564   0.7842 303.2168 0002481 231.6428 286.3758  1.00270462  9676"}}, "geometry": {"type": "Point", "coordinates": [-142.06622224274963, -0.7911791032955537]}}, {"type": "Feature", "properties": {"norad_id": 58654, "name": "BEIDOU-3 M28 (C50)", "group": "beidou", "lat": -54.03386661075004, "lon": -2.490432712886532, "alt_km": 21525.771223369007, "timestamp": "2025-12-27T21:25:02.779287+00:00", "meta": {"OBJECT_NAME": "BEIDOU-3 M28 (C50)", "OBJECT_ID": "2023-207A", "EPOCH": "2025-12-26T09:34:30.666720", "MEAN_MOTION": 1.86229622, "ECCENTRICITY": 0.0002968, "INCLINATION": 55.596, "RA_OF_ASC_NODE": 68.1388, "ARG_OF_PERICENTER": 276.5456, "MEAN_ANOMALY": 83.472, "EPHEMERIS_TYPE": 0, "CLASSIFICATION_TYPE": "U", "NORAD_CAT_ID": 58654, "ELEMENT_SET_NO": 999, "REV_AT_EPOCH": 1362, "BSTAR": 0, "MEAN_MOTION_DOT": -3.3e-07, "MEAN_MOTION_DDOT": 0}, "tle": {"line1": "1 58654U 23207A   25360.39896605 -.00000033  00000+0  00000+0 0  9999", "line2": "2 58654  55.5960  68.1388 0002968 276.5456  83.4720  1.86229622 13628"}}, "geometry": {"type": "Point", "coordinates": [-2.490432712886532, -54.03386661075004]}}, {"type": "Feature", "properties": {"norad_id": 58655, "name": "BEIDOU-3 M26 (C48)", "group": "beidou", "lat": 43.798786274003746, "lon": 109.10404556458467, "alt_km": 21533.617102196993, "timestamp": "2025-12-27T21:25:02.779299+00:00", "meta": {"OBJECT_NAME": "BEIDOU-3 M26 (C48)", "OBJECT_ID": "2023-207B", "EPOCH": "2025-12-27T06:29:22.403616", "MEAN_MOTION": 1.86231136, "ECCENTRICITY": 0.0004292, "INCLINATION": 55.5988, "RA_OF_ASC_NODE": 68.0955, "ARG_OF_PERICENTER": 262.2645, "MEAN_ANOMALY": 97.7357, "EPHEMERIS_TYPE": 0, "CLASSIFICATION_TYPE": "U", "NORAD_CAT_ID": 58655, "ELEMENT_SET_NO": 999, "REV_AT_EPOCH": 1362, "BSTAR": 0, "MEAN_MOTION_DOT": -3.8e-07, "MEAN_MOTION_DDOT": 0}, "tle": {"line1": "1 58655U 23207B   25361.27039819 -.00000038  00000+0  00000+0 0  9999", "line2": "2 58655  55.5988  68.0955 0004292 262.2645  97.7357  1.86231136 13629"}}, "geometry": {"type": "Point", "coordinates": [109.10404556458467, 43.798786274003746]}}]}